      2.10          N: GNSS NAV DATA                        RINEX VERSION / TYPE
fic2rin                                 05/17/2024 00:59:01 PGM / RUN BY / DATE
                                                            END OF HEADER
5  24  5 16  1 59 44.0 -.172854401171D-03 -.136424205266D-11  .000000000000D+00
     .170000000000D+02 -.111562500000D+02  .450375902821D-08  .241302428595D+01
    -.635161995888D-06  .583999103401D-02  .489130616188D-05  .515361254311D+04
     .352784000000D+06  .447034835815D-07 -.301289403161D+01 -.111758708954D-06
     .971492423222D+00  .291968750000D+03  .124623268682D+01 -.802461997192D-08
     .165006873199D-09  .100000000000D+01  .231400000000D+04  .000000000000D+00
     .240000000000D+01  .000000000000D+00 -.107102096081D-07  .170000000000D+02
     .345600000000D+06  .400000000000D+01
6  24  5 16  1 59 44.0  .270975753665D-03 -.196678229258D-10  .000000000000D+00
     .860000000000D+02  .230312500000D+02  .374087010797D-08  .596409566967D-01
     .126473605633D-05  .300943106413D-02  .728853046894D-05  .515362237549D+04
     .352784000000D+06 -.335276126862D-07  .228535682226D+01 -.353902578354D-07
     .989707223541D+00  .249343750000D+03 -.692031039173D+00 -.779996775711D-08
     .149291932894D-09  .100000000000D+01  .231400000000D+04  .000000000000D+00
     .240000000000D+01  .000000000000D+00  .372529029846D-08  .860000000000D+02
     .345600000000D+06  .400000000000D+01
16 24  5 16 10  0  0.0 -.290270894766D-03  .100044417195D-10  .000000000000D+00
     .115000000000D+03  .360937500000D+02  .485877381600D-08  .876387295266D+00
     .220909714699D-05  .139169779141D-01  .659562647343D-05  .515377490997D+04
     .381600000000D+06 -.745058059692D-07  .262939253092D+00  .147148966789D-06
     .962355576715D+00  .255281250000D+03  .838384102406D+00 -.839677833095D-08
    -.159292349451D-09  .100000000000D+01  .231400000000D+04  .000000000000D+00
     .240000000000D+01  .000000000000D+00 -.102445483208D-07  .115000000000D+03
     .374400000000D+06  .400000000000D+01
30 24  5 16 10  0  0.0 -.389583408833D-03  .591171556152D-11  .000000000000D+00
     .850000000000D+02  .128125000000D+01  .511164149181D-08 -.304301779701D+01
    -.447034835815D-07  .712317775469D-02  .102836638689D-04  .515364774895D+04
     .381600000000D+06 -.372529029846D-07 -.869446468735D+00 -.987201929092D-07
     .935324831211D+00  .170750000000D+03 -.246979755017D+01 -.811962392921D-08
     .173578658819D-09  .100000000000D+01  .231400000000D+04  .000000000000D+00
     .240000000000D+01  .000000000000D+00  .419095158577D-08  .850000000000D+02
     .374400000000D+06  .400000000000D+01
21 24  5 16 10  0  0.0  .121313147247D-03 -.227373675443D-11  .000000000000D+00
     .177000000000D+03  .119062500000D+02  .439304013061D-08 -.174899121228D+00
     .467523932457D-06  .251777364174D-01  .781379640102D-05  .515369147491D+04
     .381600000000D+06  .193715095520D-06  .217994569099D+01 -.452622771263D-06
     .961586217857D+00  .235187500000D+03 -.573846892192D+00 -.837177728956D-08
    -.112504686272D-09  .100000000000D+01  .231400000000D+04  .000000000000D+00
     .240000000000D+01  .000000000000D+00 -.102445483208D-07  .177000000000D+03
     .374400000000D+06  .400000000000D+01
15 24  5 16 10  0  0.0  .159599352628D-03  .409272615798D-11  .000000000000D+00
     .118000000000D+03 -.642500000000D+02  .531272129617D-08 -.987607497222D+00
    -.294856727123D-05  .155918172095D-01  .601075589657D-05  .515364965248D+04
     .381600000000D+06 -.800937414169D-07 -.207054759592D+01  .325962901115D-06
     .935074354766D+00  .251031250000D+03  .130796402179D+01 -.869143346166D-08
     .139291516336D-10  .100000000000D+01  .231400000000D+04  .000000000000D+00
     .340000000000D+01  .000000000000D+00 -.102445483208D-07  .118000000000D+03
     .374400000000D+06  .400000000000D+01
19 24  5 16 10  0  0.0  .482795294374D-03  .534328137292D-11  .000000000000D+00
     .650000000000D+02  .968750000000D+01  .436625330055D-08  .197194028743D+01
     .633299350739D-06  .983350083698D-02  .698119401932D-05  .515370699501D+04
     .381600000000D+06  .152736902237D-06  .132844512067D+01  .875443220139D-07
     .968116616869D+00  .246937500000D+03  .253456661698D+01 -.795425989828D-08
    -.535736601294D-09  .100000000000D+01  .231400000000D+04  .000000000000D+00
     .240000000000D+01  .000000000000D+00 -.153668224812D-07  .650000000000D+02
     .374400000000D+06  .400000000000D+01
14 24  5 16 10  0  0.0  .402020756155D-03  .932232069317D-11  .000000000000D+00
     .212000000000D+03  .397187500000D+02  .511092717635D-08  .265207179734D+01
     .207312405109D-05  .444686866831D-02  .646337866783D-05  .515369728661D+04
     .381600000000D+06 -.968575477600D-07  .200816868417D+00 -.223517417908D-07
     .946206061235D+00  .249093750000D+03 -.291457515790D+01 -.826355849609D-08
     .114290474943D-10  .100000000000D+01  .231400000000D+04  .000000000000D+00
     .240000000000D+01  .000000000000D+00 -.791624188423D-08  .212000000000D+03
     .374400000000D+06  .400000000000D+01
18 24  5 16 10  0  0.0 -.611375086010D-03 -.579802872380D-11  .000000000000D+00
     .360000000000D+02  .242500000000D+02  .391802034413D-08 -.200761732790D+01
     .120699405670D-05  .407514546532D-02  .854954123497D-05  .515361205673D+04
     .381600000000D+06 -.465661287308D-07  .228936569325D+01 -.372529029846D-08
     .974536846446D+00  .222937500000D+03 -.305113944274D+01 -.776639493009D-08
     .635740766869D-10  .100000000000D+01  .231400000000D+04  .000000000000D+00
     .240000000000D+01  .000000000000D+00 -.838190317154D-08  .548000000000D+03
     .374400000000D+06  .400000000000D+01
28 24  5 16 10  0  0.0 -.246277078986D-03 -.162572177942D-10  .000000000000D+00
     .880000000000D+02 -.104062500000D+02  .458340520294D-08  .198925432228D+01
    -.523403286934D-06  .362771213986D-03  .987388193607D-05  .515364963150D+04
     .381600000000D+06 -.372529029846D-08 -.903456364835D+00 -.316649675369D-07
     .961259916905D+00  .192000000000D+03  .170333818525D+01 -.788890003292D-08
     .113576159474D-09  .100000000000D+01  .231400000000D+04  .000000000000D+00
     .240000000000D+01  .000000000000D+00 -.931322574615D-08  .600000000000D+03
     .374400000000D+06  .400000000000D+01
23 24  5 16 10  0  0.0  .226723961532D-03  .943600753089D-11  .000000000000D+00
     .630000000000D+02  .100625000000D+02  .408016995546D-08  .308436624026D+01
     .687316060066D-06  .413292727899D-02  .539980828762D-05  .515371272278D+04
     .381600000000D+06 -.651925802231D-07 -.299343682324D+01 -.372529029846D-08
     .979343174557D+00  .284437500000D+03 -.296424827211D+01 -.792890169915D-08
     .306798493674D-09  .100000000000D+01  .231400000000D+04  .000000000000D+00
     .240000000000D+01  .000000000000D+00 -.838190317154D-08  .831000000000D+03
     .374400000000D+06  .400000000000D+01
15 24  5 16  9 59 28.0  .159598886967D-03  .409272615798D-11  .000000000000D+00
     .400000000000D+01 -.642500000000D+02  .531307845390D-08 -.992274886152D+00
    -.295042991638D-05  .155918181408D-01  .601075589657D-05  .515364965057D+04
     .381568000000D+06 -.800937414169D-07 -.207054731212D+01  .325962901115D-06
     .935074334285D+00  .251031250000D+03  .130796385941D+01 -.869143346166D-08
     .135719938995D-10  .100000000000D+01  .231400000000D+04  .000000000000D+00
     .240000000000D+01  .000000000000D+00 -.102445483208D-07  .400000000000D+01
     .376950000000D+06  .400000000000D+01
27 24  5 16  9 59 44.0 -.242218375206D-04 -.181898940355D-11  .000000000000D+00
     .000000000000D+00  .268750000000D+01  .466126558899D-08  .268772605286D-01
     .268220901489D-06  .125633621356D-01  .654906034470D-05  .515367878723D+04
     .381584000000D+06 -.111758708954D-07  .121589152301D+01  .180676579475D-06
     .962221285225D+00  .251625000000D+03  .792821283297D+00 -.836177687300D-08
    -.389301930274D-09  .100000000000D+01  .231400000000D+04  .000000000000D+00
     .240000000000D+01  .000000000000D+00  .186264514923D-08  .000000000000D+00
     .377700000000D+06  .400000000000D+01
17 24  5 16  9 59 44.0  .705835409462D-03 -.329691829393D-11  .000000000000D+00
     .300000000000D+01  .715625000000D+01  .443625621645D-08 -.309304520803D-01
     .370666384697D-06  .133853828302D-01  .713579356670D-05  .515372534943D+04
     .381584000000D+06 -.160187482834D-06  .128409692733D+01 -.819563865662D-07
     .968947236885D+00  .250625000000D+03 -.132212597288D+01 -.825784397235D-08
    -.385730352932D-09  .100000000000D+01  .231400000000D+04  .000000000000D+00
     .240000000000D+01  .000000000000D+00 -.111758708954D-07  .300000000000D+01
     .378480000000D+06  .400000000000D+01
21 24  5 16  9 59 44.0  .121312681586D-03 -.227373675443D-11  .000000000000D+00
     .280000000000D+02  .119062500000D+02  .439304013061D-08 -.177232697928D+00
     .467523932457D-06  .251777352532D-01  .781379640102D-05  .515369147873D+04
     .381584000000D+06  .193715095520D-06  .217994584167D+01 -.452622771263D-06
     .961586210543D+00  .235187500000D+03 -.573847069205D+00 -.837177728956D-08
    -.112504686272D-09  .100000000000D+01  .231400000000D+04  .000000000000D+00
     .240000000000D+01  .000000000000D+00 -.102445483208D-07  .280000000000D+02
     .378720000000D+06  .400000000000D+01
4  24  5 16 11 44 32.0  .362277962267D-03  .841282599140D-11  .000000000000D+00
     .151000000000D+03 -.575000000000D+02  .441518391013D-08  .545392563549D+00
    -.297836959362D-05  .281351315789D-02  .694021582603D-05  .515375112152D+04
     .387872000000D+06  .260770320892D-07 -.188349186830D+01  .651925802231D-07
     .964548368031D+00  .248625000000D+03 -.294228234649D+01 -.804640659370D-08
     .350014579512D-10  .100000000000D+01  .231400000000D+04  .000000000000D+00
     .240000000000D+01  .000000000000D+00 -.465661287308D-08  .663000000000D+03
     .380700000000D+06  .400000000000D+01
